{
  "type": "FeatureCollection",
  "features": [
    {
      "type": "Feature",
      "properties": {
        "norad_id": 29922,
        "name": "FENGYUN 1C DEB",
        "group": "fengyun-1c-debris",
        "lat": -54.439403683592964,
        "lon": 67.82128835091076,
        "alt_km": 848.927074096061,
        "timestamp": "2025-12-23T09:49:07.355375+00:00",
        "meta_object_name": "FENGYUN 1C DEB",
        "meta_object_id": "1999-025HU",
        "meta_epoch": "2025-12-22T16:54:34.007328",
        "meta_mean_motion": 13.98582904,
        "meta_eccentricity": 0.00926033,
        "meta_inclination": 99.1336,
        "meta_ra_of_asc_node": 54.1147,
        "meta_arg_of_pericenter": 339.4732,
        "meta_mean_anomaly": 20.272,
        "meta_ephemeris_type": 0,
        "meta_classification_type": "U",
        "meta_norad_cat_id": 29922,
        "meta_element_set_no": 999,
        "meta_rev_at_epoch": 96580,
        "meta_bstar": 6.8310677e-05,
        "meta_mean_motion_dot": 5.6e-07,
        "meta_mean_motion_ddot": 0,
        "tle_line1": "1 29922U 99025HU  25356.70456027  .00000056  00000+0  68311-4 0  9994",
        "tle_line2": "2 29922  99.1336  54.1147 0092603 339.4732  20.2720 13.98582904965800"
      },
      "geometry": {
        "type": "Point",
        "coordinates": [
          67.82128835091076,
          -54.439403683592964
        ]
      }
    },
    {
      "type": "Feature",
      "properties": {
        "norad_id": 29923,
        "name": "FENGYUN 1C DEB",
        "group": "fengyun-1c-debris",
        "lat": 13.279687165047982,
        "lon": 3.3326255368115794,
        "alt_km": 854.6666316636783,
        "timestamp": "2025-12-23T09:49:07.355385+00:00",
        "meta_object_name": "FENGYUN 1C DEB",
        "meta_object_id": "1999-025HV",
        "meta_epoch": "2025-12-22T19:18:43.083648",
        "meta_mean_motion": 14.13909581,
        "meta_eccentricity": 0.00179836,
        "meta_inclination": 98.6878,
        "meta_ra_of_asc_node": 4.8133,
        "meta_arg_of_pericenter": 141.2485,
        "meta_mean_anomaly": 37.5072,
        "meta_ephemeris_type": 0,
        "meta_classification_type": "U",
        "meta_norad_cat_id": 29923,
        "meta_element_set_no": 999,
        "meta_rev_at_epoch": 97417,
        "meta_bstar": 0.00039954002,
        "meta_mean_motion_dot": 7.16e-06,
        "meta_mean_motion_ddot": 0,
        "tle_line1": "1 29923U 99025HV  25356.80466532  .00000716  00000+0  39954-3 0  9991",
        "tle_line2": "2 29923  98.6878   4.8133 0017983 141.2485  37.5072 14.13909581974178"
      },
      "geometry": {
        "type": "Point",
        "coordinates": [
          3.3326255368115794,
          13.279687165047982
        ]
      }
    },
    {
      "type": "Feature",
      "properties": {
        "norad_id": 29924,
        "name": "FENGYUN 1C DEB",
        "group": "fengyun-1c-debris",
        "lat": 24.115299513939057,
        "lon": -166.0188976970192,
        "alt_km": 856.298156321006,
        "timestamp": "2025-12-23T09:49:07.355396+00:00",
        "meta_object_name": "FENGYUN 1C DEB",
        "meta_object_id": "1999-025HW",
        "meta_epoch": "2025-12-22T13:14:34.440864",
        "meta_mean_motion": 14.0889304,
        "meta_eccentricity": 0.00261293,
        "meta_inclination": 98.7338,
        "meta_ra_of_asc_node": 9.2047,
        "meta_arg_of_pericenter": 228.925,
        "meta_mean_anomaly": 260.8942,
        "meta_ephemeris_type": 0,
        "meta_classification_type": "U",
        "meta_norad_cat_id": 29924,
        "meta_element_set_no": 999,
        "meta_rev_at_epoch": 97346,
        "meta_bstar": 8.6145435e-05,
        "meta_mean_motion_dot": 1.07e-06,
        "meta_mean_motion_ddot": 0,
        "tle_line1": "1 29924U 99025HW  25356.55178751  .00000107  00000+0  86145-4 0  9996",
        "tle_line2": "2 29924  98.7338   9.2047 0026129 228.9250 260.8942 14.08893040973463"
      },
      "geometry": {
        "type": "Point",
        "coordinates": [
          -166.0188976970192,
          24.115299513939057
        ]
      }
    },
    {
      "type": "Feature",
      "properties": {
        "norad_id": 29926,
        "name": "FENGYUN 1C DEB",
        "group": "fengyun-1c-debris",
        "lat": -61.445991926374774,
        "lon": 150.335780471737,
        "alt_km": 626.7608200319282,
        "timestamp": "2025-12-23T09:49:07.355406+00:00",
        "meta_object_name": "FENGYUN 1C DEB",
        "meta_object_id": "1999-025HY",
        "meta_epoch": "2025-12-22T19:50:45.081888",
        "meta_mean_motion": 14.33418097,
        "meta_eccentricity": 0.02479364,
        "meta_inclination": 98.2841,
        "meta_ra_of_asc_node": 345.3074,
        "meta_arg_of_pericenter": 269.9918,
        "meta_mean_anomaly": 211.1344,
        "meta_ephemeris_type": 0,
        "meta_classification_type": "U",
        "meta_norad_cat_id": 29926,
        "meta_element_set_no": 999,
        "meta_rev_at_epoch": 98725,
        "meta_bstar": 0.00025832876,
        "meta_mean_motion_dot": 9.52e-06,
        "meta_mean_motion_ddot": 0,
        "tle_line1": "1 29926U 99025HY  25356.82691067  .00000952  00000+0  25833-3 0  9992",
        "tle_line2": "2 29926  98.2841 345.3074 0247936 269.9918 211.1344 14.33418097987250"
      },
      "geometry": {
        "type": "Point",
        "coordinates": [
          150.335780471737,
          -61.445991926374774
        ]
      }
    },
    {
      "type": "Feature",
      "properties": {
        "norad_id": 29927,
        "name": "FENGYUN 1C DEB",
        "group": "fengyun-1c-debris",
        "lat": 20.76763593558285,
        "lon": -153.87607804271073,
        "alt_km": 633.455504686408,
        "timestamp": "2025-12-23T09:49:07.355417+00:00",
        "meta_object_name": "FENGYUN 1C DEB",
        "meta_object_id": "1999-025HZ",
        "meta_epoch": "2025-12-21T00:14:52.042848",
        "meta_mean_motion": 14.74835758,
        "meta_eccentricity": 0.00180142,
        "meta_inclination": 99.0826,
        "meta_ra_of_asc_node": 19.9579,
        "meta_arg_of_pericenter": 185.2201,
        "meta_mean_anomaly": 204.7678,
        "meta_ephemeris_type": 0,
        "meta_classification_type": "U",
        "meta_norad_cat_id": 29927,
        "meta_element_set_no": 999,
        "meta_rev_at_epoch": 98769,
        "meta_bstar": 0.0017421746,
        "meta_mean_motion_dot": 0.0001166,
        "meta_mean_motion_ddot": 0,
        "tle_line1": "1 29927U 99025HZ  25355.01032457  .00011660  00000+0  17422-2 0  9997",
        "tle_line2": "2 29927  99.0826  19.9579 0018014 185.2201 204.7678 14.74835758987693"
      },
      "geometry": {
        "type": "Point",
        "coordinates": [
          -153.87607804271073,
          20.76763593558285
        ]
      }
    },
    {
      "type": "Feature",
      "properties": {
        "norad_id": 29928,
        "name": "FENGYUN 1C DEB",
        "group": "fengyun-1c-debris",
        "lat": -7.532876025339561,
        "lon": -159.3208193143586,
        "alt_km": 978.2682376654993,
        "timestamp": "2025-12-23T09:49:07.355427+00:00",
        "meta_object_name": "FENGYUN 1C DEB",
        "meta_object_id": "1999-025JA",
        "meta_epoch": "2025-12-22T21:24:28.354176",
        "meta_mean_motion": 13.88101245,
        "meta_eccentricity": 0.01430712,
        "meta_inclination": 99.5836,
        "meta_ra_of_asc_node": 21.4285,
        "meta_arg_of_pericenter": 76.1393,
        "meta_mean_anomaly": 47.1174,
        "meta_ephemeris_type": 0,
        "meta_classification_type": "U",
        "meta_norad_cat_id": 29928,
        "meta_element_set_no": 999,
        "meta_rev_at_epoch": 95632,
        "meta_bstar": 0.00063046078,
        "meta_mean_motion_dot": 7.7e-06,
        "meta_mean_motion_ddot": 0,
        "tle_line1": "1 29928U 99025JA  25356.89199484  .00000770  00000+0  63046-3 0  9993",
        "tle_line2": "2 29928  99.5836  21.4285 0143071  76.1393  47.1174 13.88101245956321"
      },
      "geometry": {
        "type": "Point",
        "coordinates": [
          -159.3208193143586,
          -7.532876025339561
        ]
      }
    },
    {
      "type": "Feature",
      "properties": {
        "norad_id": 29929,
        "name": "FENGYUN 1C DEB",
        "group": "fengyun-1c-debris",
        "lat": -19.07025044165047,
        "lon": 93.06366545689333,
        "alt_km": 835.4479831245408,
        "timestamp": "2025-12-23T09:49:07.355438+00:00",
        "meta_object_name": "FENGYUN 1C DEB",
        "meta_object_id": "1999-025JB",
        "meta_epoch": "2025-12-22T17:47:11.071104",
        "meta_mean_motion": 14.01388908,
        "meta_eccentricity": 0.01317015,
        "meta_inclination": 98.6246,
        "meta_ra_of_asc_node": 275.4397,
        "meta_arg_of_pericenter": 148.161,
        "meta_mean_anomaly": 281.571,
        "meta_ephemeris_type": 0,
        "meta_classification_type": "U",
        "meta_norad_cat_id": 29929,
        "meta_element_set_no": 999,
        "meta_rev_at_epoch": 96096,
        "meta_bstar": 0.00087176176,
        "meta_mean_motion_dot": 1.378e-05,
        "meta_mean_motion_ddot": 0,
        "tle_line1": "1 29929U 99025JB  25356.74110036  .00001378  00000+0  87176-3 0  9999",
        "tle_line2": "2 29929  98.6246 275.4397 0131701 148.1610 281.5710 14.01388908960965"
      },
      "geometry": {
        "type": "Point",
        "coordinates": [
          93.06366545689333,
          -19.07025044165047
        ]
      }
    }
  ]
}